places = [{"placeName":"Griffith Observatory","descrip":"Planetarium","latitude":34.118219,"longitude":-118.300293},
{"placeName":"The Lighthouse Cafe","descrip":"Common jazz hangout for Sebastian","latitude":33.861944,"longitude":-118.401057},
{"placeName":"Hermosa Beach Pier","descrip":"Sebastian's ","latitude":33.861595,"longitude":-118.403397},
{"placeName":"Century Freeway/Harbor Freeway","descrip":"Another Day of Sun","latitude":33.927663,"longitude":-118.269885},
{"placeName":"Rialto Theatre","descrip":"Mia & Sebastian's first date where they watched ","latitude":34.145051,"longitude":-118.150298},
{"placeName":"The Blind Donkey","descrip":"Seb's Jazz Cafe","latitude":34.146867,"longitude":-118.149282},
{"placeName":"Angels Flight Railway","descrip":"Mia & Sebastian ride the funicular railway","latitude":34.051418,"longitude":-118.250323},
{"placeName":"Mount Hollwood Dr","descrip":"A Lovely Night","latitude":34.138008,"longitude":-118.305056},
{"placeName":"4403 W. Magnolia Blvd","descrip":"Van Beek Tapas and Tunes","latitude":34.169143,"longitude":-118.343242},
{"placeName":"Warner Brothers Burbank Studios","descrip":"Mia's job as a Studio Lot Barista","latitude":34.149046,"longitude":-118.337628},
{"placeName":"Santa Clarita","descrip":"Boulder City, Mia's hometown","latitude":34.414139,"longitude":-118.554192},
{"placeName":"Colorado Street Bridge","descrip":"Mia & Sebastian walked across this bridge at the beginning of their relationship","latitude":34.144535,"longitude":-118.164776},
{"placeName":"Langham Apartments","descrip":"Mia's apartment (interior)","latitude":34.059441,"longitude":-118.299826},
{"placeName":"4533 Estrondo Dr","descrip":"Pool party where Mia and Sebastian meet for the third time","latitude":34.15258,"longitude":-118.500423},
{"placeName":"8404 Willis Ave","descrip":"Sebastian's apartment","latitude":34.223681,"longitude":-118.455162},
{"placeName":"Will Rogers Memorial Park","descrip":"Mia's sister's engagement party","latitude":34.080649,"longitude":-118.412522},
{"placeName":"Regent Theater","descrip":"Sebastian's band photoshoot","latitude":34.047091,"longitude":-118.247986},
{"placeName":"Orcutt Ranch Horticulture Center","descrip":"Epilogue","latitude":34.218936,"longitude":-118.641041},
{"placeName":"Smokehouse Restaurant","descrip":"Sebastian's former restaurant workplace","latitude":34.145546,"longitude":-118.341346},
{"placeName":"El Rey Theatre","descrip":"Start a Fire","latitude":34.062579,"longitude":-118.34891}]
